METHANESAT              
1 59101U 24043D   25258.30424329  .00004678  00000+0  42334-3 0  9991
2 59101  97.8112  24.0087 0010327 200.8986 159.1814 14.95859551 83522
GOSAT-GW (IBUKI GW)     
1 64694U 25141A   25256.03364140  .00000592  00000+0  11262-3 0  9993
2 64694  98.0275 193.2598 0001444  87.7028 272.4342 14.67567370 11196
GHGSAT-C1               
1 46278U 20061G   25258.29271880  .00028168  00000+0  44289-3 0  9999
2 46278  97.2422 332.7494 0001391  24.1203 336.0116 15.53587775280567
GHGSAT-C12              
1 64529U 25135B   25258.30334256  .00004719  00000+0  23827-3 0  9995
2 64529  97.4540  11.4457 0006283  60.4328 299.7532 15.17561212 13092
GHGSAT-C13              
1 64548U 25135W   25258.24653840  .00004085  00000+0  20161-3 0  9996
2 64548  97.4563  11.5451 0001696  46.6678 313.4697 15.18456518 13099
GHGSAT-C2               
1 47509U 21006DA  25258.06588229  .00005292  00000+0  16620-3 0  9991
2 47509  97.2592 305.1074 0007519  82.5389 277.6708 15.33405137257629
GHGSAT-C3               
1 52737U 22057F   25258.34910718  .00009143  00000+0  32224-3 0  9997
2 52737  97.6242  30.3248 0006863  25.2639 334.8935 15.29496474183453
GHGSAT-C4               
1 52746U 22057Q   25258.30222315  .00009214  00000+0  32486-3 0  9991
2 52746  97.6169  29.3823 0006771  11.1398 348.9990 15.29483712183450
GHGSAT-C5               
1 52744U 22057N   25258.31889093  .00009416  00000+0  33193-3 0  9992
2 52744  97.6330  31.5483 0007764  20.5654 339.5897 15.29476535183454
GHGSAT-C6               
1 56204U 23054AC  25258.28742586  .00019226  00000+0  42830-3 0  9994
2 56204  97.3191 159.8159 0007331 338.3841  21.7097 15.43621814135911
GHGSAT-C7               
1 56209U 23054AH  25258.26467020  .00014148  00000+0  32672-3 0  9995
2 56209  97.3152 159.2438 0007418 329.4917  30.5898 15.42612395135907
GHGSAT-C8               
1 56186U 23054J   25258.26164057  .00017088  00000+0  38097-3 0  9996
2 56186  97.3159 159.2545 0005791   8.3688 351.7656 15.43633904135895
SENTINEL-5P             
1 42969U 17064A   25258.09591739  .00000062  00000+0  50525-4 0  9991
2 42969  98.7626 197.5329 0001001  77.1048 283.0239 14.19546142410532
ENMAP                   
1 52159U 22033C   25258.28126693  .00000534  00000+0  86934-4 0  9996
2 52159  97.9801 339.4733 0001269  95.4965 264.6389 14.74983059186133
PRISMA                  
1 44072U 19015A   25258.31529105  .00001004  00000+0  12811-3 0  9991
2 44072  97.8684 332.0353 0001113  90.2642 269.8700 14.83635697351293
SENTINEL-2A             
1 40697U 15028A   25258.31955598  .00000151  00000+0  74372-4 0  9992
2 40697  98.5717 332.1026 0001142  95.3006 264.8307 14.30812564534425
SENTINEL-2B             
1 42063U 17013A   25258.24245420  .00000155  00000+0  75630-4 0  9997
2 42063  98.5628 331.9656 0001170  91.1528 268.9789 14.30821280445329
SENTINEL-2C             
1 60989U 24157A   25257.92794817  .00000071  00000+0  43566-4 0  9994
2 60989  98.5617 331.7245 0001206  89.8630 270.2691 14.30821003 53623
LANDSAT 8               
1 39084U 13008A   25258.20996254  .00000447  00000+0  10933-3 0  9998
2 39084  98.2177 327.5389 0001235  93.4734 266.6606 14.57101427657853
LANDSAT 9               
1 49260U 21088A   25258.17565901  .00000477  00000+0  11593-3 0  9995
2 49260  98.2197 327.5191 0001271  99.4149 260.7193 14.57114086210956
